[{"OBJECT_NAME":"AT&T T-16","OBJECT_ID":"2019-034A","EPOCH":"2026-03-05T03:41:38.459040","MEAN_MOTION":1.00273465,"ECCENTRICITY":8.987e-5,"INCLINATION":0.026,"RA_OF_ASC_NODE":99.4351,"ARG_OF_PERICENTER":70.8775,"MEAN_ANOMALY":307.1124,"EPHEMERIS_TYPE":0,"CLASSIFICATION_TYPE":"U","NORAD_CAT_ID":44333,"ELEMENT_SET_NO":999,"REV_AT_EPOCH":2459,"BSTAR":0,"MEAN_MOTION_DOT":-1.24e-6,"MEAN_MOTION_DDOT":0},{"OBJECT_NAME":"EUTELSAT 7C","OBJECT_ID":"2019-034B","EPOCH":"2026-03-05T02:53:38.857632","MEAN_MOTION":1.00270612,"ECCENTRICITY":0.00032807,"INCLINATION":0.0718,"RA_OF_ASC_NODE":178.1433,"ARG_OF_PERICENTER":153.1021,"MEAN_ANOMALY":241.9864,"EPHEMERIS_TYPE":0,"CLASSIFICATION_TYPE":"U","NORAD_CAT_ID":44334,"ELEMENT_SET_NO":999,"REV_AT_EPOCH":579,"BSTAR":0,"MEAN_MOTION_DOT":3.9e-7,"MEAN_MOTION_DDOT":0},{"OBJECT_NAME":"BEIDOU-3 IGSO-2","OBJECT_ID":"2019-035A","EPOCH":"2026-02-26T16:31:51.989952","MEAN_MOTION":1.00247364,"ECCENTRICITY":0.00387345,"INCLINATION":55.2338,"RA_OF_ASC_NODE":159.8353,"ARG_OF_PERICENTER":206.4752,"MEAN_ANOMALY":153.7223,"EPHEMERIS_TYPE":0,"CLASSIFICATION_TYPE":"U","NORAD_CAT_ID":44337,"ELEMENT_SET_NO":999,"REV_AT_EPOCH":2456,"BSTAR":0,"MEAN_MOTION_DOT":-1.76e-6,"MEAN_MOTION_DDOT":0},{"OBJECT_NAME":"COSMOS 2539","OBJECT_ID":"2019-048A","EPOCH":"2026-03-05T05:29:51.687744","MEAN_MOTION":1.00275091,"ECCENTRICITY":6.234e-5,"INCLINATION":0.0186,"RA_OF_ASC_NODE":111.8415,"ARG_OF_PERICENTER":252.9215,"MEAN_ANOMALY":252.6553,"EPHEMERIS_TYPE":0,"CLASSIFICATION_TYPE":"U","NORAD_CAT_ID":44457,"ELEMENT_SET_NO":999,"REV_AT_EPOCH":2418,"BSTAR":0,"MEAN_MOTION_DOT":7.3e-7,"MEAN_MOTION_DDOT":0},{"OBJECT_NAME":"EDRS-C","OBJECT_ID":"2019-049A","EPOCH":"2026-03-05T06:07:03.121536","MEAN_MOTION":1.0027198,"ECCENTRICITY":0.00013006,"INCLINATION":0.0327,"RA_OF_ASC_NODE":119.0948,"ARG_OF_PERICENTER":233.8617,"MEAN_ANOMALY":44.286,"EPHEMERIS_TYPE":0,"CLASSIFICATION_TYPE":"U","NORAD_CAT_ID":44475,"ELEMENT_SET_NO":999,"REV_AT_EPOCH":2416,"BSTAR":0,"MEAN_MOTION_DOT":-2.71e-6,"MEAN_MOTION_DDOT":0},{"OBJECT_NAME":"INTELSAT 39 (IS-39)","OBJECT_ID":"2019-049B","EPOCH":"2026-03-05T05:47:38.745024","MEAN_MOTION":1.00269573,"ECCENTRICITY":7.1e-5,"INCLINATION":0.0243,"RA_OF_ASC_NODE":150.8895,"ARG_OF_PERICENTER":354.7393,"MEAN_ANOMALY":166.207,"EPHEMERIS_TYPE":0,"CLASSIFICATION_TYPE":"U","NORAD_CAT_ID":44476,"ELEMENT_SET_NO":999,"REV_AT_EPOCH":2408,"BSTAR":0,"MEAN_MOTION_DOT":0,"MEAN_MOTION_DDOT":0},{"OBJECT_NAME":"AMOS-17","OBJECT_ID":"2019-050A","EPOCH":"2026-03-05T05:31:14.056320","MEAN_MOTION":1.00271626,"ECCENTRICITY":0.00014386,"INCLINATION":0.046,"RA_OF_ASC_NODE":291.0471,"ARG_OF_PERICENTER":53.5443,"MEAN_ANOMALY":278.1492,"EPHEMERIS_TYPE":0,"CLASSIFICATION_TYPE":"U","NORAD_CAT_ID":44479,"ELEMENT_SET_NO":999,"REV_AT_EPOCH":2414,"BSTAR":0,"MEAN_MOTION_DOT":1.0e-6,"MEAN_MOTION_DDOT":0},{"OBJECT_NAME":"AEHF-5 (USA 292)","OBJECT_ID":"2019-051A","EPOCH":"2026-03-05T00:44:41.531136","MEAN_MOTION":1.00272011,"ECCENTRICITY":0.00715511,"INCLINATION":1.5625,"RA_OF_ASC_NODE":328.761,"ARG_OF_PERICENTER":3.3137,"MEAN_ANOMALY":294.9545,"EPHEMERIS_TYPE":0,"CLASSIFICATION_TYPE":"U","NORAD_CAT_ID":44481,"ELEMENT_SET_NO":999,"REV_AT_EPOCH":2421,"BSTAR":0,"MEAN_MOTION_DOT":-2.67e-6,"MEAN_MOTION_DDOT":0},{"OBJECT_NAME":"EUTELSAT 5 WEST B","OBJECT_ID":"2019-067A","EPOCH":"2026-03-05T05:24:59.654016","MEAN_MOTION":1.00272817,"ECCENTRICITY":0.00032062,"INCLINATION":0.0933,"RA_OF_ASC_NODE":311.2659,"ARG_OF_PERICENTER":42.6829,"MEAN_ANOMALY":245.2296,"EPHEMERIS_TYPE":0,"CLASSIFICATION_TYPE":"U","NORAD_CAT_ID":44624,"ELEMENT_SET_NO":999,"REV_AT_EPOCH":2339,"BSTAR":0,"MEAN_MOTION_DOT":-5.1e-7,"MEAN_MOTION_DDOT":0},{"OBJECT_NAME":"MEV-1","OBJECT_ID":"2019-067B","EPOCH":"2026-02-26T20:08:46.258656","MEAN_MOTION":1.00269845,"ECCENTRICITY":0.0003215,"INCLINATION":0.8853,"RA_OF_ASC_NODE":269.7923,"ARG_OF_PERICENTER":58.449,"MEAN_ANOMALY":286.7172,"EPHEMERIS_TYPE":0,"CLASSIFICATION_TYPE":"U","NORAD_CAT_ID":44625,"ELEMENT_SET_NO":999,"REV_AT_EPOCH":6047,"BSTAR":0,"MEAN_MOTION_DOT":-1.6e-6,"MEAN_MOTION_DDOT":0},{"OBJECT_NAME":"TJS-4","OBJECT_ID":"2019-070A","EPOCH":"2026-03-05T00:13:21.341856","MEAN_MOTION":1.00270329,"ECCENTRICITY":0.00074933,"INCLINATION":0.0683,"RA_OF_ASC_NODE":277.0848,"ARG_OF_PERICENTER":96.2673,"MEAN_ANOMALY":236.2359,"EPHEMERIS_TYPE":0,"CLASSIFICATION_TYPE":"U","NORAD_CAT_ID":44637,"ELEMENT_SET_NO":999,"REV_AT_EPOCH":2342,"BSTAR":0,"MEAN_MOTION_DOT":-1.79e-6,"MEAN_MOTION_DDOT":0},{"OBJECT_NAME":"BEIDOU-3 IGSO-3","OBJECT_ID":"2019-073A","EPOCH":"2026-03-04T23:59:28.140864","MEAN_MOTION":1.00269136,"ECCENTRICITY":0.00405449,"INCLINATION":54.9773,"RA_OF_ASC_NODE":282.0233,"ARG_OF_PERICENTER":188.9429,"MEAN_ANOMALY":171.0293,"EPHEMERIS_TYPE":0,"CLASSIFICATION_TYPE":"U","NORAD_CAT_ID":44709,"ELEMENT_SET_NO":999,"REV_AT_EPOCH":2341,"BSTAR":0,"MEAN_MOTION_DOT":-1.62e-6,"MEAN_MOTION_DDOT":0},{"OBJECT_NAME":"TIBA-1","OBJECT_ID":"2019-080A","EPOCH":"2026-03-04T19:09:38.947680","MEAN_MOTION":1.00276366,"ECCENTRICITY":0.00019044,"INCLINATION":0.0563,"RA_OF_ASC_NODE":340.9223,"ARG_OF_PERICENTER":3.8796,"MEAN_ANOMALY":140.6788,"EPHEMERIS_TYPE":0,"CLASSIFICATION_TYPE":"U","NORAD_CAT_ID":44800,"ELEMENT_SET_NO":999,"REV_AT_EPOCH":2301,"BSTAR":0,"MEAN_MOTION_DOT":1.45e-6,"MEAN_MOTION_DDOT":0},{"OBJECT_NAME":"INMARSAT GX5","OBJECT_ID":"2019-080B","EPOCH":"2026-03-05T05:29:29.223744","MEAN_MOTION":1.00272218,"ECCENTRICITY":0.00019353,"INCLINATION":0.0499,"RA_OF_ASC_NODE":21.4088,"ARG_OF_PERICENTER":329.9132,"MEAN_ANOMALY":264.9855,"EPHEMERIS_TYPE":0,"CLASSIFICATION_TYPE":"U","NORAD_CAT_ID":44801,"ELEMENT_SET_NO":999,"REV_AT_EPOCH":574,"BSTAR":0,"MEAN_MOTION_DOT":6.6e-7,"MEAN_MOTION_DDOT":0},{"OBJECT_NAME":"JCSAT-18 (KACIFIC 1)","OBJECT_ID":"2019-091A","EPOCH":"2026-03-04T21:35:38.634144","MEAN_MOTION":1.00270792,"ECCENTRICITY":3.539e-5,"INCLINATION":0.0464,"RA_OF_ASC_NODE":311.9837,"ARG_OF_PERICENTER":45.2642,"MEAN_ANOMALY":279.3244,"EPHEMERIS_TYPE":0,"CLASSIFICATION_TYPE":"U","NORAD_CAT_ID":44868,"ELEMENT_SET_NO":999,"REV_AT_EPOCH":2296,"BSTAR":0,"MEAN_MOTION_DOT":-2.11e-6,"MEAN_MOTION_DDOT":0},{"OBJECT_NAME":"ELEKTRO-L 3","OBJECT_ID":"2019-095A","EPOCH":"2026-03-05T04:21:38.795328","MEAN_MOTION":1.00270283,"ECCENTRICITY":0.00016737,"INCLINATION":0.0443,"RA_OF_ASC_NODE":305.7093,"ARG_OF_PERICENTER":25.0794,"MEAN_ANOMALY":333.4886,"EPHEMERIS_TYPE":0,"CLASSIFICATION_TYPE":"U","NORAD_CAT_ID":44903,"ELEMENT_SET_NO":999,"REV_AT_EPOCH":2266,"BSTAR":0,"MEAN_MOTION_DOT":-1.04e-6,"MEAN_MOTION_DDOT":0},{"OBJECT_NAME":"SHIJIAN-20 (SJ-20)","OBJECT_ID":"2019-097A","EPOCH":"2026-03-05T04:21:38.793600","MEAN_MOTION":1.00081784,"ECCENTRICITY":4.42e-5,"INCLINATION":4.6516,"RA_OF_ASC_NODE":76.3395,"ARG_OF_PERICENTER":37.3515,"MEAN_ANOMALY":190.1851,"EPHEMERIS_TYPE":0,"CLASSIFICATION_TYPE":"U","NORAD_CAT_ID":44910,"ELEMENT_SET_NO":999,"REV_AT_EPOCH":2265,"BSTAR":0,"MEAN_MOTION_DOT":-5.8e-7,"MEAN_MOTION_DDOT":0}]
