AT&T T-16               
1 44333U 19034A   26064.15391735 -.00000124  00000+0  00000+0 0  9992
2 44333   0.0260  99.4351 0000898  70.8775 307.1124  1.00273465 24593
EUTELSAT 7C             
1 44334U 19034B   26064.12058863  .00000039  00000+0  00000+0 0  9996
2 44334   0.0718 178.1433 0003280 153.1021 241.9864  1.00270612  5793
BEIDOU-3 IGSO-2         
1 44337U 19035A   26057.68879618 -.00000176  00000+0  00000+0 0  9995
2 44337  55.2338 159.8353 0038734 206.4752 153.7223  1.00247364 24561
COSMOS 2539             
1 44457U 19048A   26064.22907046  .00000073  00000+0  00000+0 0  9992
2 44457   0.0186 111.8415 0000623 252.9215 252.6553  1.00275091 24187
EDRS-C                  
1 44475U 19049A   26064.25489724 -.00000271  00000+0  00000+0 0  9995
2 44475   0.0327 119.0948 0001300 233.8617  44.2860  1.00271980 24169
INTELSAT 39 (IS-39)     
1 44476U 19049B   26064.24142066  .00000000  00000+0  00000+0 0  9999
2 44476   0.0243 150.8895 0000710 354.7393 166.2070  1.00269573 24083
AMOS-17                 
1 44479U 19050A   26064.23002380  .00000100  00000+0  00000+0 0  9998
2 44479   0.0460 291.0471 0001438  53.5443 278.1492  1.00271626 24143
AEHF-5 (USA 292)        
1 44481U 19051A   26064.03103624 -.00000267  00000+0  00000+0 0  9998
2 44481   1.5625 328.7610 0071551   3.3137 294.9545  1.00272011 24216
EUTELSAT 5 WEST B       
1 44624U 19067A   26064.22569044 -.00000051  00000+0  00000+0 0  9998
2 44624   0.0933 311.2659 0003206  42.6829 245.2296  1.00272817 23391
MEV-1                   
1 44625U 19067B   26057.83942429 -.00000160  00000+0  00000+0 0  9991
2 44625   0.8853 269.7923 0003215  58.4490 286.7172  1.00269845 60471
TJS-4                   
1 44637U 19070A   26064.00927479 -.00000179  00000+0  00000+0 0  9993
2 44637   0.0683 277.0848 0007493  96.2673 236.2359  1.00270329 23420
BEIDOU-3 IGSO-3         
1 44709U 19073A   26063.99963126 -.00000162  00000+0  00000+0 0  9994
2 44709  54.9773 282.0233 0040544 188.9429 171.0293  1.00269136 23410
TIBA-1                  
1 44800U 19080A   26063.79836745  .00000145  00000+0  00000+0 0  9998
2 44800   0.0563 340.9223 0001904   3.8796 140.6788  1.00276366 23013
INMARSAT GX5            
1 44801U 19080B   26064.22881046  .00000066  00000+0  00000+0 0  9994
2 44801   0.0499  21.4088 0001935 329.9132 264.9855  1.00272218  5749
JCSAT-18 (KACIFIC 1)    
1 44868U 19091A   26063.89975271 -.00000211  00000+0  00000+0 0  9998
2 44868   0.0464 311.9837 0000353  45.2642 279.3244  1.00270792 22960
ELEKTRO-L 3             
1 44903U 19095A   26064.18169902 -.00000104  00000+0  00000+0 0  9992
2 44903   0.0443 305.7093 0001673  25.0794 333.4886  1.00270283 22668
SHIJIAN-20 (SJ-20)      
1 44910U 19097A   26064.18169900 -.00000058  00000+0  00000+0 0  9998
2 44910   4.6516  76.3395 0000442  37.3515 190.1851  1.00081784 22658
